STARLINK-1022
1 24727C 19074Q   21325.13233383  .00003933  00000-0  26361-3 0  3256
2 24727  53.0647  72.5902 0001375  80.1130 219.2208 15.06384411    13
